*******************************************************************************
Ephemeris / WWW_USER Tue Mar 11 05:31:35 2025 Pasadena, USA      / Horizons    
*******************************************************************************
Target body name: (2018 VS1)                      {source: JPL#4}
Center body name: Earth (399)                     {source: DE441}
Center-site name: Gemini South Obs., Cerro Pachon
*******************************************************************************
Start time      : A.D. 2018-Sep-20 22:46:00.0000 UT      
Stop  time      : A.D. 2018-Sep-21 10:25:00.0000 UT      
Step-size       : 1 minutes
*******************************************************************************
Target pole/equ : undefined
Target radii    : undefined                                                    
Center geodetic : 289.2634, -30.2406227, 2.71233  {E-lon(deg),Lat(deg),Alt(km)}
Center cylindric: 289.2634,5517.21435,-3194.81213 {E-lon(deg),Dxy(km),Dz(km)}
Center pole/equ : ITRF93                          {East-longitude positive}
Center radii    : 6378.137, 6378.137, 6356.752 km {Equator_a, b, pole_c}       
Target primary  : Sun
Vis. interferer : MOON (R_eq= 1737.400) km        {source: DE441}
Rel. light bend : Sun                             {source: DE441}
Rel. lght bnd GM: 1.3271E+11 km^3/s^2                                          
Small-body perts: Yes                             {source: SB441-N16}
Atmos refraction: NO (AIRLESS)
RA format       : HMS
Time format     : CAL 
Calendar mode   : Mixed Julian/Gregorian
RTS-only print  : NO       
EOP file        : eop.250310.p250606                                           
EOP coverage    : DATA-BASED 1962-JAN-20 TO 2025-MAR-10. PREDICTS-> 2025-JUN-05
Units conversion: 1 au= 149597870.700 km, c= 299792.458 km/s, 1 day= 86400.0 s 
Table cut-offs 1: Elevation (-90.0deg=NO ),Airmass (>38.000=NO), Daylight (YES)
Table cut-offs 2: Solar elongation (  0.0,180.0=NO ),Local Hour Angle( 0.0=NO )
Table cut-offs 3: RA/DEC angular rate (     0.0=NO )                           
*******************************************************************************
Initial IAU76/J2000 heliocentric ecliptic osculating elements (au, days, deg.):
  EPOCH=  2458427.5 ! 2018-Nov-05.00 (TDB)         Residual RMS= .21634        
   EC= .3907275528854954   QR= .7806320880190512   TP= 2458486.1030618688      
   OM= 55.95483604725189   W=  67.17004921097404   IN= 3.601110299269385       
  Equivalent ICRF heliocentric cartesian coordinates (au, au/d):
   X= 7.595935200506908E-01  Y= 6.354459268576240E-01  Z= 2.586666727482118E-01
  VX=-1.643099138746886E-02 VY= 7.530892270769961E-03 VZ= 4.533522122669557E-03
Asteroid physical parameters (km, seconds, rotational period in hours):        
   GM= n.a.                RAD= n.a.               ROTPER= n.a.                
   H= 26.6                 G= .150                 B-V= n.a.                   
                           ALBEDO= n.a.            STYP= n.a.                  
*******************************************************************************
 Date__(UT)__HR:MN     R.A._________(ICRF)_________DEC
******************************************************
$$SOE
 2018-Sep-20 22:46 Cm  02 29 18.059401 +04 32 16.24951
 2018-Sep-20 22:47 Cm  02 29 18.100644 +04 32 16.16796
 2018-Sep-20 22:48 Cm  02 29 18.141866 +04 32 16.08642
 2018-Sep-20 22:49 Cm  02 29 18.183067 +04 32 16.00490
 2018-Sep-20 22:50 Cm  02 29 18.224245 +04 32 15.92339
 2018-Sep-20 22:51 Cm  02 29 18.265401 +04 32 15.84189
 2018-Sep-20 22:52 Cm  02 29 18.306536 +04 32 15.76041
 2018-Sep-20 22:53 Cm  02 29 18.347648 +04 32 15.67893
 2018-Sep-20 22:54 Cm  02 29 18.388738 +04 32 15.59747
 2018-Sep-20 22:55 Cm  02 29 18.429805 +04 32 15.51602
 2018-Sep-20 22:56 Cm  02 29 18.470851 +04 32 15.43458
 2018-Sep-20 22:57 Cm  02 29 18.511874 +04 32 15.35316
 2018-Sep-20 22:58 Cm  02 29 18.552874 +04 32 15.27174
 2018-Sep-20 22:59 Cm  02 29 18.593853 +04 32 15.19034
 2018-Sep-20 23:00 Cm  02 29 18.634808 +04 32 15.10894
 2018-Sep-20 23:01 Cm  02 29 18.675741 +04 32 15.02756
 2018-Sep-20 23:02 Cm  02 29 18.716651 +04 32 14.94619
 2018-Sep-20 23:03 Nm  02 29 18.757538 +04 32 14.86483
 2018-Sep-20 23:04 Nm  02 29 18.798403 +04 32 14.78349
 2018-Sep-20 23:05 Nm  02 29 18.839244 +04 32 14.70215
 2018-Sep-20 23:06 Nm  02 29 18.880063 +04 32 14.62082
 2018-Sep-20 23:07 Nm  02 29 18.920859 +04 32 14.53950
 2018-Sep-20 23:08 Nm  02 29 18.961631 +04 32 14.45820
 2018-Sep-20 23:09 Nm  02 29 19.002381 +04 32 14.37690
 2018-Sep-20 23:10 Nm  02 29 19.043107 +04 32 14.29562
 2018-Sep-20 23:11 Nm  02 29 19.083810 +04 32 14.21434
 2018-Sep-20 23:12 Nm  02 29 19.124489 +04 32 14.13307
 2018-Sep-20 23:13 Nm  02 29 19.165145 +04 32 14.05182
 2018-Sep-20 23:14 Nm  02 29 19.205778 +04 32 13.97057
 2018-Sep-20 23:15 Nm  02 29 19.246387 +04 32 13.88933
 2018-Sep-20 23:16 Nm  02 29 19.286972 +04 32 13.80810
 2018-Sep-20 23:17 Nm  02 29 19.327534 +04 32 13.72689
 2018-Sep-20 23:18 Nm  02 29 19.368073 +04 32 13.64568
 2018-Sep-20 23:19 Nm  02 29 19.408587 +04 32 13.56448
 2018-Sep-20 23:20 Nm  02 29 19.449078 +04 32 13.48328
 2018-Sep-20 23:21 Nm  02 29 19.489544 +04 32 13.40210
 2018-Sep-20 23:22 Nm  02 29 19.529987 +04 32 13.32093
 2018-Sep-20 23:23 Nm  02 29 19.570406 +04 32 13.23976
 2018-Sep-20 23:24 Nm  02 29 19.610801 +04 32 13.15860
 2018-Sep-20 23:25 Nm  02 29 19.651171 +04 32 13.07745
 2018-Sep-20 23:26 Nm  02 29 19.691518 +04 32 12.99631
 2018-Sep-20 23:27 Nm  02 29 19.731840 +04 32 12.91518
 2018-Sep-20 23:28 Nm  02 29 19.772138 +04 32 12.83405
 2018-Sep-20 23:29 Nm  02 29 19.812412 +04 32 12.75294
 2018-Sep-20 23:30 Am  02 29 19.852661 +04 32 12.67183
 2018-Sep-20 23:31 Am  02 29 19.892886 +04 32 12.59072
 2018-Sep-20 23:32 Am  02 29 19.933087 +04 32 12.50963
 2018-Sep-20 23:33 Am  02 29 19.973263 +04 32 12.42854
 2018-Sep-20 23:34 Am  02 29 20.013414 +04 32 12.34746
 2018-Sep-20 23:35 Am  02 29 20.053541 +04 32 12.26639
 2018-Sep-20 23:36 Am  02 29 20.093643 +04 32 12.18532
 2018-Sep-20 23:37 Am  02 29 20.133721 +04 32 12.10426
 2018-Sep-20 23:38 Am  02 29 20.173773 +04 32 12.02321
 2018-Sep-20 23:39 Am  02 29 20.213801 +04 32 11.94216
 2018-Sep-20 23:40 Am  02 29 20.253804 +04 32 11.86112
 2018-Sep-20 23:41 Am  02 29 20.293782 +04 32 11.78008
 2018-Sep-20 23:42 Am  02 29 20.333735 +04 32 11.69906
 2018-Sep-20 23:43 Am  02 29 20.373663 +04 32 11.61803
 2018-Sep-20 23:44 Am  02 29 20.413566 +04 32 11.53702
 2018-Sep-20 23:45 Am  02 29 20.453444 +04 32 11.45601
 2018-Sep-20 23:46 Am  02 29 20.493296 +04 32 11.37500
 2018-Sep-20 23:47 Am  02 29 20.533124 +04 32 11.29400
 2018-Sep-20 23:48 Am  02 29 20.572926 +04 32 11.21301
 2018-Sep-20 23:49 Am  02 29 20.612703 +04 32 11.13202
 2018-Sep-20 23:50 Am  02 29 20.652455 +04 32 11.05103
 2018-Sep-20 23:51 Am  02 29 20.692181 +04 32 10.97005
 2018-Sep-20 23:52 Am  02 29 20.731882 +04 32 10.88908
 2018-Sep-20 23:53 Am  02 29 20.771557 +04 32 10.80811
 2018-Sep-20 23:54 Am  02 29 20.811207 +04 32 10.72714
 2018-Sep-20 23:55 Am  02 29 20.850831 +04 32 10.64618
 2018-Sep-20 23:56 Am  02 29 20.890430 +04 32 10.56523
 2018-Sep-20 23:57 Am  02 29 20.930003 +04 32 10.48427
 2018-Sep-20 23:58 Am  02 29 20.969551 +04 32 10.40332
 2018-Sep-20 23:59  m  02 29 21.009072 +04 32 10.32238
 2018-Sep-21 00:00  m  02 29 21.048568 +04 32 10.24144
 2018-Sep-21 00:01  m  02 29 21.088039 +04 32 10.16050
 2018-Sep-21 00:02  m  02 29 21.127483 +04 32 10.07957
 2018-Sep-21 00:03  m  02 29 21.166902 +04 32 09.99864
 2018-Sep-21 00:04  m  02 29 21.206294 +04 32 09.91771
 2018-Sep-21 00:05  m  02 29 21.245661 +04 32 09.83678
 2018-Sep-21 00:06  m  02 29 21.285002 +04 32 09.75586
 2018-Sep-21 00:07  m  02 29 21.324316 +04 32 09.67494
 2018-Sep-21 00:08  m  02 29 21.363605 +04 32 09.59403
 2018-Sep-21 00:09  m  02 29 21.402868 +04 32 09.51311
 2018-Sep-21 00:10  m  02 29 21.442104 +04 32 09.43220
 2018-Sep-21 00:11  m  02 29 21.481315 +04 32 09.35129
 2018-Sep-21 00:12  m  02 29 21.520499 +04 32 09.27039
 2018-Sep-21 00:13  m  02 29 21.559657 +04 32 09.18948
 2018-Sep-21 00:14  m  02 29 21.598789 +04 32 09.10858
 2018-Sep-21 00:15  m  02 29 21.637894 +04 32 09.02768
 2018-Sep-21 00:16  m  02 29 21.676973 +04 32 08.94678
 2018-Sep-21 00:17  m  02 29 21.716026 +04 32 08.86588
 2018-Sep-21 00:18  m  02 29 21.755053 +04 32 08.78498
 2018-Sep-21 00:19  m  02 29 21.794053 +04 32 08.70409
 2018-Sep-21 00:20  m  02 29 21.833027 +04 32 08.62319
 2018-Sep-21 00:21  m  02 29 21.871974 +04 32 08.54230
 2018-Sep-21 00:22  m  02 29 21.910895 +04 32 08.46141
 2018-Sep-21 00:23  m  02 29 21.949789 +04 32 08.38051
 2018-Sep-21 00:24  m  02 29 21.988657 +04 32 08.29962
 2018-Sep-21 00:25  m  02 29 22.027498 +04 32 08.21873
 2018-Sep-21 00:26  m  02 29 22.066312 +04 32 08.13784
 2018-Sep-21 00:27  m  02 29 22.105100 +04 32 08.05695
 2018-Sep-21 00:28  m  02 29 22.143862 +04 32 07.97605
 2018-Sep-21 00:29  m  02 29 22.182596 +04 32 07.89516
 2018-Sep-21 00:30  m  02 29 22.221304 +04 32 07.81427
 2018-Sep-21 00:31  m  02 29 22.259985 +04 32 07.73338
 2018-Sep-21 00:32  m  02 29 22.298640 +04 32 07.65248
 2018-Sep-21 00:33  m  02 29 22.337268 +04 32 07.57159
 2018-Sep-21 00:34  m  02 29 22.375869 +04 32 07.49069
 2018-Sep-21 00:35  m  02 29 22.414443 +04 32 07.40980
 2018-Sep-21 00:36  m  02 29 22.452990 +04 32 07.32890
 2018-Sep-21 00:37  m  02 29 22.491511 +04 32 07.24800
 2018-Sep-21 00:38  m  02 29 22.530004 +04 32 07.16710
 2018-Sep-21 00:39  m  02 29 22.568471 +04 32 07.08620
 2018-Sep-21 00:40  m  02 29 22.606911 +04 32 07.00530
 2018-Sep-21 00:41  m  02 29 22.645324 +04 32 06.92439
 2018-Sep-21 00:42  m  02 29 22.683710 +04 32 06.84349
 2018-Sep-21 00:43  m  02 29 22.722069 +04 32 06.76258
 2018-Sep-21 00:44  m  02 29 22.760401 +04 32 06.68166
 2018-Sep-21 00:45  m  02 29 22.798706 +04 32 06.60075
 2018-Sep-21 00:46  m  02 29 22.836984 +04 32 06.51983
 2018-Sep-21 00:47  m  02 29 22.875235 +04 32 06.43891
 2018-Sep-21 00:48  m  02 29 22.913459 +04 32 06.35799
